[{"OBJECT_NAME":"SITRO-AIS 25","OBJECT_ID":"2024-039R","EPOCH":"2026-03-09T23:42:54.414720","MEAN_MOTION":14.92631971,"ECCENTRICITY":0.01453919,"INCLINATION":95.3931,"RA_OF_ASC_NODE":166.9537,"ARG_OF_PERICENTER":315.2559,"MEAN_ANOMALY":43.701,"EPHEMERIS_TYPE":0,"CLASSIFICATION_TYPE":"U","NORAD_CAT_ID":59066,"ELEMENT_SET_NO":999,"REV_AT_EPOCH":10992,"BSTAR":0.00036753428,"MEAN_MOTION_DOT":4.616e-5,"MEAN_MOTION_DDOT":0},{"OBJECT_NAME":"COSMOS 2251 DEB","OBJECT_ID":"1993-036LR","EPOCH":"2026-03-09T23:10:57.796608","MEAN_MOTION":14.73500531,"ECCENTRICITY":0.00131349,"INCLINATION":74.021,"RA_OF_ASC_NODE":29.4701,"ARG_OF_PERICENTER":66.4941,"MEAN_ANOMALY":357.9368,"EPHEMERIS_TYPE":0,"CLASSIFICATION_TYPE":"U","NORAD_CAT_ID":34271,"ELEMENT_SET_NO":999,"REV_AT_EPOCH":89518,"BSTAR":0.002619682,"MEAN_MOTION_DOT":0.00017058,"MEAN_MOTION_DDOT":0}]
